FENGYUN 1C DEB          
1 30158U 99025TP  17346.33829735  .00117616  00000-0  88303-2 0  9999
2 30158  98.9599 116.0445 0050316 211.2803 148.5421 15.01033975556613
